ONEWEB-0578             
1 56067U 23043X   24230.85565832 -.00000100  00000+0 -27333-3 0  9992
2 56067  87.9316  17.0237 0001907  95.4986 264.6366 13.21827862 69949
ONEWEB-0579             
1 56068U 23043Y   24230.84621247  .00000058  00000+0  10903-3 0  9990
2 56068  87.9313  17.0211 0001387  91.2755 268.8538 13.21824099 69956
ONEWEB-0581             
1 56069U 23043Z   24230.90899973  .00000037  00000+0  64138-4 0  9998
2 56069  87.9145   1.8564 0001777  79.1710 280.9620 13.16594646 71025
ONEWEB-0609             
1 56070U 23043AA  24230.86801535 -.00000194  00000+0 -54843-3 0  9999
2 56070  87.9043  32.2031 0001702  95.8496 264.2828 13.15548357 68562
ONEWEB-0613             
1 56071U 23043AB  24229.95057613  .00000011  00000+0 -59727-5 0  9993
2 56071  87.9043  32.3842 0001422  92.2837 267.8456 13.15546770 68443
ONEWEB-0630             
1 56072U 23043AC  24230.02187600 -.00000066  00000+0 -21031-3 0  9990
2 56072  87.9041  32.3587 0001387  97.8261 262.3026 13.15547446 68444
ONEWEB-0632             
1 56073U 23043AD  24230.85375834 -.00000035  00000+0 -12742-3 0  9995
2 56073  87.9046  32.2114 0001640  78.9698 281.1617 13.15548895 68557
ONEWEB-0633             
1 56074U 23043AE  24230.01077872  .00000001  00000+0 -30684-4 0  9993
2 56074  87.9035  32.3593 0001331 106.4316 253.6961 13.15547935 68425
